[{"OBJECT_NAME":"ZACUBE-1 (TSHEPISOSAT)","OBJECT_ID":"2013-066B","EPOCH":"2026-03-09T22:19:27.469056","MEAN_MOTION":15.00329659,"ECCENTRICITY":0.00425262,"INCLINATION":97.8171,"RA_OF_ASC_NODE":30.7553,"ARG_OF_PERICENTER":219.1599,"MEAN_ANOMALY":140.6545,"EPHEMERIS_TYPE":0,"CLASSIFICATION_TYPE":"U","NORAD_CAT_ID":39417,"ELEMENT_SET_NO":999,"REV_AT_EPOCH":66584,"BSTAR":0.00042975473,"MEAN_MOTION_DOT":5.431e-5,"MEAN_MOTION_DDOT":0},{"OBJECT_NAME":"STARLINK-34384","OBJECT_ID":"2025-123X","EPOCH":"2026-03-09T17:36:28.841760","MEAN_MOTION":14.98332102,"ECCENTRICITY":0.00039959,"INCLINATION":70.0026,"RA_OF_ASC_NODE":194.4036,"ARG_OF_PERICENTER":269.0225,"MEAN_ANOMALY":91.0476,"EPHEMERIS_TYPE":0,"CLASSIFICATION_TYPE":"U","NORAD_CAT_ID":64312,"ELEMENT_SET_NO":999,"REV_AT_EPOCH":4162,"BSTAR":0.00051922228,"MEAN_MOTION_DOT":6.108e-5,"MEAN_MOTION_DDOT":0}]
